start=new Date('2022-01-26T00:00:00.000Z').valueOf();
sats=[{"TLE_LINE2":"2 46351  53.0524 267.1917 0002233  51.4918 308.6271 15.06398064 77947","PERIOD":"95.592","TIME_SYSTEM":"UTC","ARG_OF_PERICENTER":"51.4918","SITE":"AFETR","MEAN_ANOMALY":"308.6271","MEAN_MOTION_DDOT":"0.0000000000000","OBJECT_ID":"2020-062AC","FILE":"3283711","RCS_SIZE":"LARGE","MEAN_MOTION":"15.06398064","ELEMENT_SET_NO":"999","PERIAPSIS":"545.673","GP_ID":"194642736","NORAD_CAT_ID":"46351","APOAPSIS":"548.766","ECCENTRICITY":"0.00022330","BSTAR":"0.00000930770000","INCLINATION":"53.0524","EPHEMERIS_TYPE":"0","CLASSIFICATION_TYPE":"U","SEMIMAJOR_AXIS":"6925.354","OBJECT_NAME":"STARLINK-1646","COUNTRY_CODE":"US","RA_OF_ASC_NODE":"267.1917","DECAY_DATE":null,"OBJECT_TYPE":"PAYLOAD","REV_AT_EPOCH":"7794","MEAN_MOTION_DOT":"-0.00000143","EPOCH":"2022-01-25T22:39:22.786272","TLE_LINE1":"1 46351U 20062AC  22025.94401373 -.00000143  00000-0  93077-5 0  9991","MEAN_ELEMENT_THEORY":"SGP4","REF_FRAME":"TEME","LAUNCH_DATE":"2020-09-03","CENTER_NAME":"EARTH"},{"SITE":"AFETR","TIME_SYSTEM":"UTC","ARG_OF_PERICENTER":"68.2486","PERIOD":"95.592","TLE_LINE2":"2 46352  53.0542 267.2728 0001736  68.2486 291.8687 15.06403012 77946","OBJECT_ID":"2020-062AD","MEAN_MOTION_DDOT":"0.0000000000000","MEAN_ANOMALY":"291.8687","MEAN_MOTION":"15.06403012","RCS_SIZE":"LARGE","FILE":"3283711","GP_ID":"194643987","PERIAPSIS":"546.002","ELEMENT_SET_NO":"999","OBJECT_NAME":"STARLINK-1653","SEMIMAJOR_AXIS":"6925.339","BSTAR":"0.00003361500000","INCLINATION":"53.0542","CLASSIFICATION_TYPE":"U","EPHEMERIS_TYPE":"0","APOAPSIS":"548.407","ECCENTRICITY":"0.00017360","NORAD_CAT_ID":"46352","DECAY_DATE":null,"RA_OF_ASC_NODE":"267.2728","COUNTRY_CODE":"US","LAUNCH_DATE":"2020-09-03","REF_FRAME":"TEME","MEAN_ELEMENT_THEORY":"SGP4","TLE_LINE1":"1 46352U 20062AD  22025.92556884  .00000219  00000-0  33615-4 0  9992","REV_AT_EPOCH":"7794","OBJECT_TYPE":"PAYLOAD","MEAN_MOTION_DOT":"0.00000219","EPOCH":"2022-01-25T22:12:49.147776","CENTER_NAME":"EARTH"},{"CENTER_NAME":"EARTH","MEAN_MOTION_DOT":"-0.00000484","OBJECT_TYPE":"PAYLOAD","REV_AT_EPOCH":"7765","EPOCH":"2022-01-25T22:10:10.664256","TLE_LINE1":"1 46353U 20062AE  22025.92373454 -.00000484  00000-0 -13572-4 0  9999","MEAN_ELEMENT_THEORY":"SGP4","REF_FRAME":"TEME","LAUNCH_DATE":"2020-09-03","COUNTRY_CODE":"US","RA_OF_ASC_NODE":"287.2931","DECAY_DATE":null,"NORAD_CAT_ID":"46353","APOAPSIS":"548.522","ECCENTRICITY":"0.00018840","CLASSIFICATION_TYPE":"U","BSTAR":"-0.00001357200000","INCLINATION":"53.0554","EPHEMERIS_TYPE":"0","SEMIMAJOR_AXIS":"6925.352","OBJECT_NAME":"STARLINK-1656","ELEMENT_SET_NO":"999","PERIAPSIS":"545.913","GP_ID":"194643738","FILE":"3283711","RCS_SIZE":"LARGE","MEAN_MOTION":"15.06398714","MEAN_ANOMALY":"289.2955","MEAN_MOTION_DDOT":"0.0000000000000","OBJECT_ID":"2020-062AE","TLE_LINE2":"2 46353  53.0554 287.2931 0001884  70.8238 289.2955 15.06398714 77655","PERIOD":"95.592","TIME_SYSTEM":"UTC","ARG_OF_PERICENTER":"70.8238","SITE":"AFETR"},{"CENTER_NAME":"EARTH","MEAN_ELEMENT_THEORY":"SGP4","TLE_LINE1":"1 46354U 20062AF  22025.91266571 -.00000435  00000-0 -10316-4 0  9999","REF_FRAME":"TEME","OBJECT_TYPE":"PAYLOAD","REV_AT_EPOCH":"7765","MEAN_MOTION_DOT":"-0.00000435","EPOCH":"2022-01-25T21:54:14.317344","LAUNCH_DATE":"2020-09-03","COUNTRY_CODE":"US","DECAY_DATE":null,"RA_OF_ASC_NODE":"287.3281","NORAD_CAT_ID":"46354","ECCENTRICITY":"0.00018910","APOAPSIS":"548.535","OBJECT_NAME":"STARLINK-1657","BSTAR":"-0.00001031600000","INCLINATION":"53.0533","EPHEMERIS_TYPE":"0","CLASSIFICATION_TYPE":"U","SEMIMAJOR_AXIS":"6925.361","GP_ID":"194642986","ELEMENT_SET_NO":"999","PERIAPSIS":"545.916","FILE":"3283711","MEAN_MOTION":"15.06396005","RCS_SIZE":"LARGE","MEAN_MOTION_DDOT":"0.0000000000000","MEAN_ANOMALY":"295.0836","OBJECT_ID":"2020-062AF","PERIOD":"95.592","TLE_LINE2":"2 46354  53.0533 287.3281 0001891  65.0349 295.0836 15.06396005 77653","SITE":"AFETR","ARG_OF_PERICENTER":"65.0349","TIME_SYSTEM":"UTC"},{"MEAN_MOTION_DDOT":"0.0000000000000","MEAN_ANOMALY":"299.8816","OBJECT_ID":"2020-062AG","PERIOD":"95.593","TLE_LINE2":"2 46355  53.0543 287.4504 0001734  60.2346 299.8816 15.06392369 77653","SITE":"AFETR","TIME_SYSTEM":"UTC","ARG_OF_PERICENTER":"60.2346","GP_ID":"194643236","PERIAPSIS":"546.036","ELEMENT_SET_NO":"999","FILE":"3283711","MEAN_MOTION":"15.06392369","RCS_SIZE":"LARGE","COUNTRY_CODE":"US","DECAY_DATE":null,"RA_OF_ASC_NODE":"287.4504","ECCENTRICITY":"0.00017340","APOAPSIS":"548.438","NORAD_CAT_ID":"46355","OBJECT_NAME":"STARLINK-1661","SEMIMAJOR_AXIS":"6925.372","BSTAR":"-0.00012323000000","CLASSIFICATION_TYPE":"U","EPHEMERIS_TYPE":"0","INCLINATION":"53.0543","CENTER_NAME":"EARTH","REF_FRAME":"TEME","MEAN_ELEMENT_THEORY":"SGP4","TLE_LINE1":"1 46355U 20062AG  22025.88687266 -.00002116  00000-0 -12323-3 0  9991","OBJECT_TYPE":"PAYLOAD","EPOCH":"2022-01-25T21:17:05.797824","MEAN_MOTION_DOT":"-0.00002116","REV_AT_EPOCH":"7765","LAUNCH_DATE":"2020-09-03"},{"PERIOD":"95.592","TLE_LINE2":"2 46356  53.0542 287.4041 0001827  70.3429 289.7757 15.06404241 77651","SITE":"AFETR","TIME_SYSTEM":"UTC","ARG_OF_PERICENTER":"70.3429","MEAN_MOTION_DDOT":"0.0000000000000","MEAN_ANOMALY":"289.7757","OBJECT_ID":"2020-062AH","FILE":"3283711","MEAN_MOTION":"15.06404241","RCS_SIZE":"LARGE","GP_ID":"194643488","ELEMENT_SET_NO":"999","PERIAPSIS":"545.935","NORAD_CAT_ID":"46356","APOAPSIS":"548.466","ECCENTRICITY":"0.00018270","OBJECT_NAME":"STARLINK-1665","BSTAR":"-0.00002052000000","EPHEMERIS_TYPE":"0","INCLINATION":"53.0542","CLASSIFICATION_TYPE":"U","SEMIMAJOR_AXIS":"6925.336","COUNTRY_CODE":"US","DECAY_DATE":null,"RA_OF_ASC_NODE":"287.4041","TLE_LINE1":"1 46356U 20062AH  22025.89792483 -.00000587  00000-0 -20520-4 0  9990","MEAN_ELEMENT_THEORY":"SGP4","REF_FRAME":"TEME","REV_AT_EPOCH":"7765","OBJECT_TYPE":"PAYLOAD","MEAN_MOTION_DOT":"-0.00000587","EPOCH":"2022-01-25T21:33:00.705312","LAUNCH_DATE":"2020-09-03","CENTER_NAME":"EARTH"},{"GP_ID":"194644238","ELEMENT_SET_NO":"999","PERIAPSIS":"545.978","MEAN_MOTION":"15.06389983","RCS_SIZE":"LARGE","FILE":"3283711","OBJECT_ID":"2020-062AJ","MEAN_MOTION_DDOT":"0.0000000000000","MEAN_ANOMALY":"304.1352","SITE":"AFETR","ARG_OF_PERICENTER":"55.9810","TIME_SYSTEM":"UTC","PERIOD":"95.593","TLE_LINE2":"2 46357  53.0529 267.4203 0001828  55.9810 304.1352 15.06389983 77938","CENTER_NAME":"EARTH","LAUNCH_DATE":"2020-09-03","TLE_LINE1":"1 46357U 20062AJ  22025.89608998 -.00000487  00000-0 -13766-4 0  9991","MEAN_ELEMENT_THEORY":"SGP4","REF_FRAME":"TEME","OBJECT_TYPE":"PAYLOAD","EPOCH":"2022-01-25T21:30:22.174272","MEAN_MOTION_DOT":"-0.00000487","REV_AT_EPOCH":"7793","DECAY_DATE":null,"RA_OF_ASC_NODE":"267.4203","COUNTRY_CODE":"US","OBJECT_NAME":"STARLINK-1666","BSTAR":"-0.00001376600000","INCLINATION":"53.0529","EPHEMERIS_TYPE":"0","CLASSIFICATION_TYPE":"U","SEMIMAJOR_AXIS":"6925.379","NORAD_CAT_ID":"46357","APOAPSIS":"548.510","ECCENTRICITY":"0.00018280"},{"GP_ID":"194642487","PERIAPSIS":"545.979","ELEMENT_SET_NO":"999","MEAN_MOTION":"15.06391237","RCS_SIZE":"LARGE","FILE":"3283711","OBJECT_ID":"2020-062AK","MEAN_MOTION_DDOT":"0.0000000000000","MEAN_ANOMALY":"294.2783","SITE":"AFETR","ARG_OF_PERICENTER":"65.8396","TIME_SYSTEM":"UTC","PERIOD":"95.593","TLE_LINE2":"2 46358  53.0541 287.1987 0001822  65.8396 294.2783 15.06391237 77666","CENTER_NAME":"EARTH","LAUNCH_DATE":"2020-09-03","REF_FRAME":"TEME","MEAN_ELEMENT_THEORY":"SGP4","TLE_LINE1":"1 46358U 20062AK  22025.94215917 -.00000981  00000-0 -46999-4 0  9996","EPOCH":"2022-01-25T22:36:42.552288","OBJECT_TYPE":"PAYLOAD","MEAN_MOTION_DOT":"-0.00000981","REV_AT_EPOCH":"7766","DECAY_DATE":null,"RA_OF_ASC_NODE":"287.1987","COUNTRY_CODE":"US","OBJECT_NAME":"STARLINK-1690","SEMIMAJOR_AXIS":"6925.375","INCLINATION":"53.0541","BSTAR":"-0.00004699900000","EPHEMERIS_TYPE":"0","CLASSIFICATION_TYPE":"U","ECCENTRICITY":"0.00018220","APOAPSIS":"548.502","NORAD_CAT_ID":"46358"},{"CENTER_NAME":"EARTH","LAUNCH_DATE":"2020-09-03","OBJECT_TYPE":"PAYLOAD","EPOCH":"2022-01-25T20:32:37.788288","MEAN_MOTION_DOT":"-0.00001396","REV_AT_EPOCH":"7827","TLE_LINE1":"1 46359U 20062AL  22025.85599292 -.00001396  00000-0 -74774-4 0  9991","MEAN_ELEMENT_THEORY":"SGP4","REF_FRAME":"TEME","RA_OF_ASC_NODE":"242.5956","DECAY_DATE":null,"COUNTRY_CODE":"US","BSTAR":"-0.00007477400000","EPHEMERIS_TYPE":"0","INCLINATION":"53.0538","CLASSIFICATION_TYPE":"U","SEMIMAJOR_AXIS":"6925.312","OBJECT_NAME":"STARLINK-1707","NORAD_CAT_ID":"46359","APOAPSIS":"548.526","ECCENTRICITY":"0.00019480","ELEMENT_SET_NO":"999","PERIAPSIS":"545.828","GP_ID":"194642737","RCS_SIZE":"LARGE","MEAN_MOTION":"15.06411939","FILE":"3283711","OBJECT_ID":"2020-062AL","MEAN_ANOMALY":"304.3637","MEAN_MOTION_DDOT":"0.0000000000000","ARG_OF_PERICENTER":"55.7536","TIME_SYSTEM":"UTC","SITE":"AFETR","TLE_LINE2":"2 46359  53.0538 242.5956 0001948  55.7536 304.3637 15.06411939 78278","PERIOD":"95.591"},{"DECAY_DATE":null,"RA_OF_ASC_NODE":"242.4986","COUNTRY_CODE":"US","OBJECT_NAME":"STARLINK-1713","SEMIMAJOR_AXIS":"6925.361","EPHEMERIS_TYPE":"0","BSTAR":"-0.00000041227000","INCLINATION":"53.0537","CLASSIFICATION_TYPE":"U","ECCENTRICITY":"0.00018900","APOAPSIS":"548.535","NORAD_CAT_ID":"46360","CENTER_NAME":"EARTH","LAUNCH_DATE":"2020-09-03","REF_FRAME":"TEME","MEAN_ELEMENT_THEORY":"SGP4","TLE_LINE1":"1 46360U 20062AM  22025.87812656 -.00000288  00000-0 -41227-6 0  9995","OBJECT_TYPE":"PAYLOAD","REV_AT_EPOCH":"7828","MEAN_MOTION_DOT":"-0.00000288","EPOCH":"2022-01-25T21:04:30.134784","OBJECT_ID":"2020-062AM","MEAN_MOTION_DDOT":"0.0000000000000","MEAN_ANOMALY":"295.5585","SITE":"AFETR","ARG_OF_PERICENTER":"64.5599","TIME_SYSTEM":"UTC","PERIOD":"95.592","TLE_LINE2":"2 46360  53.0537 242.4986 0001890  64.5599 295.5585 15.06395912 78280","GP_ID":"194643988","PERIAPSIS":"545.917","ELEMENT_SET_NO":"999","MEAN_MOTION":"15.06395912","RCS_SIZE":"LARGE","FILE":"3283711"}];
